73P-AJ/Schwassmann-Wachmann,e,11.385,70.041,198.663,3.06262,0.183892,0.6933024,359.864,06/08.0/2006,2000,g  9.0,4.0
# From MPC 56799
73P-AK/Schwassmann-Wachmann,e,11.389,69.784,198.822,3.06244,0.183909,0.6933024,359.927,06/08.0/2006,2000,g  9.0,4.0
# From MPC 56799
73P-AL/Schwassmann-Wachmann,e,11.395,69.843,198.857,3.06140,0.184003,0.6933024,359.916,06/08.0/2006,2000,g  9.0,4.0
# From MPC 56799
73P-AM/Schwassmann-Wachmann,e,11.394,69.876,198.815,3.06205,0.183944,0.6933024,359.951,06/08.0/2006,2000,g  9.0,4.0
# From MPC 56799
73P-AN/Schwassmann-Wachmann,e,11.393,69.870,198.820,3.06185,0.183962,0.6933024,359.940,06/08.0/2006,2000,g  9.0,4.0
# From MPC 56799
73P-AO/Schwassmann-Wachmann,e,11.210,71.286,197.007,3.07823,0.182496,0.6933024,359.853,06/07.0/2006,2000,g  9.0,4.0
# From MPC 56799
73P-AP/Schwassmann-Wachmann,e,11.393,69.895,198.794,3.06223,0.183928,0.6933024,359.874,06/06.0/2006,2000,g  9.0,4.0
# From MPC 56799
73P-AQ/Schwassmann-Wachmann,e,11.387,69.911,198.770,3.06230,0.183921,0.6933024,359.831,06/07.0/2006,2000,g  9.0,4.0
# From MPC 56799
73P-AR/Schwassmann-Wachmann,e,11.385,69.946,198.722,3.06285,0.183872,0.6933024,359.847,06/06.0/2006,2000,g  9.0,4.0
# From MPC 56799
73P-AS/Schwassmann-Wachmann,e,11.392,69.906,198.773,3.06237,0.183915,0.6933024,359.938,06/06.0/2006,2000,g  9.0,4.0
# From MPC 56799
73P-AT/Schwassmann-Wachmann,e,11.391,69.901,198.778,3.06248,0.183905,0.6933024,359.958,06/06.0/2006,2000,g  9.0,4.0
# From MPC 56799
73P-AU/Schwassmann-Wachmann,e,11.385,69.928,198.744,3.06261,0.183894,0.6933024,359.983,06/08.0/2006,2000,g  9.0,4.0
# From MPC 56800
73P-AV/Schwassmann-Wachmann,e,11.388,69.945,198.751,3.06263,0.183892,0.6933024,359.910,06/06.0/2006,2000,g  9.0,4.0
# From MPC 56800
73P-AW/Schwassmann-Wachmann,e,11.377,69.982,198.673,3.06318,0.183843,0.6933024,359.859,06/07.0/2006,2000,g  9.0,4.0
# From MPC 56800
73P-AX/Schwassmann-Wachmann,e,11.388,69.915,198.757,3.06205,0.183944,0.6933024,359.902,06/09.0/2006,2000,g  9.0,4.0
# From MPC 56800
73P-AY/Schwassmann-Wachmann,e,11.385,69.923,198.750,3.06223,0.183927,0.6933024,359.860,06/08.0/2006,2000,g  9.0,4.0
# From MPC 56800
73P-AZ/Schwassmann-Wachmann,e,11.371,70.002,198.644,3.06367,0.183798,0.6933024,359.905,06/06.0/2006,2000,g  9.0,4.0
# From MPC 56800
73P-BA/Schwassmann-Wachmann,e,11.364,70.042,198.588,3.06413,0.183756,0.6933024,359.920,06/06.0/2006,2000,g  9.0,4.0
# From MPC 56800
73P-BB/Schwassmann-Wachmann,e,11.395,69.882,198.807,3.06205,0.183944,0.6933024,359.984,06/07.0/2006,2000,g  9.0,4.0
# From MPC 56800
73P-BC/Schwassmann-Wachmann,e,11.391,69.901,198.778,3.06235,0.183917,0.6933024,359.877,06/06.0/2006,2000,g  9.0,4.0
# From MPC 56800
73P-BD/Schwassmann-Wachmann,e,11.352,70.085,198.503,3.06483,0.183694,0.6933024,359.923,06/06.0/2006,2000,g  9.0,4.0
# From MPC 56800
73P-BE/Schwassmann-Wachmann,e,11.405,69.841,198.861,3.06171,0.183975,0.6933024,359.841,06/06.0/2006,2000,g  9.0,4.0
# From MPC 56800
73P-BF/Schwassmann-Wachmann,e,11.390,69.908,198.752,3.06223,0.183928,0.6933024,359.818,06/06.0/2006,2000,g  9.0,4.0
# From MPC 56800
73P-BG/Schwassmann-Wachmann,e,11.384,69.925,198.750,3.06214,0.183936,0.6933024,359.864,06/08.0/2006,2000,g  9.0,4.0
# From MPC 56801
73P-BH/Schwassmann-Wachmann,e,11.410,69.752,198.947,3.06079,0.184058,0.6933024,359.895,06/08.0/2006,2000,g  9.0,4.0
# From MPC 56801
73P-BI/Schwassmann-Wachmann,e,11.404,69.819,198.877,3.06179,0.183967,0.6933024,359.882,06/08.0/2006,2000,g  9.0,4.0
# From MPC 56801
73P-BJ/Schwassmann-Wachmann,e,11.389,69.905,198.776,3.06209,0.183941,0.6933024,359.877,06/08.0/2006,2000,g  9.0,4.0
# From MPC 56801
73P-BK/Schwassmann-Wachmann,e,11.379,69.970,198.698,3.06264,0.183891,0.6933024,359.837,06/08.0/2006,2000,g  9.0,4.0
# From MPC 56801
73P-BL/Schwassmann-Wachmann,e,11.385,69.930,198.739,3.06239,0.183914,0.6933024,359.837,06/08.0/2006,2000,g  9.0,4.0
# From MPC 56801
73P-BM/Schwassmann-Wachmann,e,11.364,70.086,198.546,3.06367,0.183798,0.6933024,359.827,06/08.0/2006,2000,g  9.0,4.0
# From MPC 56801
73P-BN/Schwassmann-Wachmann,e,11.398,69.871,198.815,3.06180,0.183967,0.6933024,359.963,06/08.0/2006,2000,g  9.0,4.0
# From MPC 56801
73P-BO/Schwassmann-Wachmann,e,11.390,69.903,198.765,3.06206,0.183943,0.6933024,359.952,06/08.0/2006,2000,g  9.0,4.0
# From MPC 56801
73P-BP/Schwassmann-Wachmann,e,11.395,69.881,198.807,3.06196,0.183952,0.6933024,359.944,06/08.0/2006,2000,g  9.0,4.0
# From MPC 56801
73P-BQ/Schwassmann-Wachmann,e,11.404,69.836,198.862,3.06166,0.183979,0.6933024,359.945,06/08.0/2006,2000,g  9.0,4.0
# From MPC 56957
73P-BR/Schwassmann-Wachmann,e,11.389,69.910,198.774,3.06233,0.183918,0.6933024,359.971,06/06.0/2006,2000,g  9.0,4.0
# From MPC 56957
73P-BS/Schwassmann-Wachmann,e,11.399,69.885,198.814,3.06224,0.183927,0.6933024,359.847,06/05.0/2006,2000,g  9.0,4.0
# From MPC106348
73P-BT/Schwassmann-Wachmann,e,11.0981,198.6079,70.0774,3.082883,0.1820826,0.69178565,131.6324,08/22.0/2024,2000,g 11.5,6.0
# From MPEC 2022-P18
73P-BU/Schwassmann-Wachmann,e,11.0190,199.4881,70.8158,2.869147,0.2028033,0.67040440,147.2741,08/22.0/2024,2000,g 19.0,4.0
# From MPEC 2022-X67
73P-BV/Schwassmann-Wachmann,e,11.3566,69.3883,198.9341,3.128419,0.1781216,0.69927867,128.8893,08/22.0/2024,2000,g 19.0,4.0
# From MPEC 2022-R15
73P-BW/Schwassmann-Wachmann,e,10.2746,193.5763,71.1520,4.533886,0.1020935,0.78803431,74.2182,08/22.0/2024,2000,g 18.2,4.0
# From MPEC 2023-A50
73P-BX/Schwassmann-Wachmann,e,11.3675,69.3852,198.9774,3.108686,0.1798204,0.69692445,130.0800,08/22.0/2024,2000,g 17.5,4.0
# From MPEC 2022-R15
73P-BY/Schwassmann-Wachmann,e,11.0938,198.7553,70.1239,3.024422,0.1873874,0.68569759,136.0568,08/22.0/2024,2000,g 17.4,4.0
# From MPEC 2024-EF7
74P/Smirnova-Chernykh,e,6.4214,53.7198,103.9795,4.910864,0.0905664,0.03413313,262.5429,08/22.0/2024,2000,g  5.0,6.0
# From CCO 7
75D/Kohoutek,e,5.9262,269.5525,175.5614,3.537199,0.1481545,0.49941393,187.0632,08/22.0/2024,2000,g  9.5,6.0
# From MPEC 2022-K19
76P/West-Kohoutek-Ikemura,e,30.4885,84.1121,359.9678,3.468565,0.1525735,0.53937211,268.5258,08/22.0/2024,2000,g  8.0,12.0
# From MPEC 2024-Q20
77P/Longmore,e,24.3195,14.7584,196.6625,3.621589,0.1430064,0.35166037,72.5209,08/22.0/2024,2000,g  7.0,8.0
# From MPEC 2024-Q20
78P/Gehrels,e,6.2575,210.5163,192.7131,3.735010,0.1365421,0.46316115,268.2464,08/22.0/2024,2000,g  5.5,8.0
# From MPEC 2024-PC5
79P/duToit-Hartley,e,3.1489,280.5161,281.7680,2.943341,0.1951835,0.61919571,63.7649,08/22.0/2024,2000,g 16.0,4.0
# From MPEC 2024-Q20
80P/Peters-Hartley,e,29.9251,259.7770,339.2871,4.022587,0.1221648,0.59801896,76.0314,08/22.0/2024,2000,g  9.0,8.0
# From MPEC 2024-Q20
81P/Wild,e,3.2372,136.0938,41.5738,3.452338,0.1536505,0.53735126,94.5571,08/22.0/2024,2000,g  7.0,6.0
# From MPC133426
82P/Gehrels,e,1.1292,239.2253,226.4378,4.132016,0.1173441,0.12257889,264.2498,08/22.0/2024,2000,g 15.0,4.0
# From NK 932
83D/Russell,e,17.8274,226.3023,334.4138,3.843791,0.1307869,0.44129449,155.3592,08/22.0/2024,2000,g  9.0,4.0
# From MPEC 2020-FB5
84P/Giclas,e,7.5518,108.1516,281.6669,3.550120,0.1473464,0.51594543,226.7521,08/22.0/2024,2000,g  9.5,8.0
# From unp
85D/Boethin,e,4.1741,65.2854,333.0820,5.044920,0.0869807,0.77619957,129.0447,08/22.0/2024,2000,g  6.5,8.0
# From MPEC 2022-YB4
86P/Wild,e,15.5314,72.0816,180.8714,3.632169,0.1423820,0.36797698,131.9130,08/22.0/2024,2000,g 11.0,6.0
# From MPEC 2020-SI8
87P/Bus,e,2.7038,186.2230,51.6335,4.315865,0.1099265,0.22854740,176.1905,08/22.0/2024,2000,g  7.2,10.0
# From MPEC 2024-C04
88P/Howell,e,4.3820,56.6671,235.9067,3.107588,0.1799156,0.56317859,256.7549,08/22.0/2024,2000,g 11.0,6.0
# From MPEC 2024-Q20
89P/Russell,e,12.0721,41.3443,250.4009,3.750947,0.1356728,0.40765645,20.1340,08/22.0/2024,2000,g 11.5,6.0
# From MPEC 2022-K19
90P/Gehrels,e,9.6453,13.2073,29.1387,6.052637,0.0661892,0.51101834,173.1614,08/22.0/2024,2000,g  8.5,6.0
# From MPEC 2023-VM5
91P/Russell,e,16.7045,242.7103,358.9901,4.035805,0.1215651,0.28738434,178.6279,08/22.0/2024,2000,g  7.5,6.0
# From MPEC 2014-J58
92P/Sanguin,e,19.4892,181.3738,163.7977,5.343143,0.0798011,0.66034675,275.6407,08/22.0/2024,2000,g 12.0,6.0
# From NK 2707
93P/Lovas,e,12.2064,339.5679,74.9774,4.376253,0.1076590,0.61402331,293.3760,08/22.0/2024,2000,g  9.0,4.0
# From MPEC 2024-F91
94P/Russell,e,6.1879,70.8519,92.3900,3.510455,0.1498508,0.36575861,68.7744,08/22.0/2024,2000,g  9.0,6.0
# From MPC 75717
95P/Chiron,e,6.9238,209.1975,339.3746,13.70690,0.0194221,0.37726249,203.8473,08/22.0/2024,2000,g  6.5,2.0
# From MPEC 2023-N01
96P/Machholz,e,57.5658,93.9583,14.7387,3.030960,0.1867815,0.96165460,106.2507,08/22.0/2024,2000,g 13.0,4.8
# From MPC106348
96P-B/Machholz,e,57.5027,14.6853,93.9668,3.030051,0.1868655,0.96167512,106.3040,08/22.0/2024,2000,g 13.0,4.8
# From MPC103849
96P-C/Machholz,e,58.5311,94.3495,15.5380,3.011920,0.1885553,0.95889850,359.8715,07/14.0/2012,2000,g  9.0,4.0
# From MPEC 2024-GJ3
97P/Metcalf-Brewington,e,17.9458,184.0801,230.1350,4.767676,0.0946769,0.46023295,86.9094,08/22.0/2024,2000,g  5.5,6.0
# From MPEC 2021-W31
98P/Takamizawa,e,10.5833,114.6023,157.7127,3.788050,0.1336843,0.56332337,177.2661,08/22.0/2024,2000,g  9.0,8.0
# From MPEC 2024-P23
99P/Kowal,e,4.3392,28.0860,174.6154,6.095789,0.0654876,0.22855155,56.6707,08/22.0/2024,2000,g  4.5,6.0
# From MPEC 2023-OA6
100P/Hartley,e,25.5673,37.6856,181.9605,3.430562,0.1551159,0.41150354,115.1559,08/22.0/2024,2000,g  9.0,8.0
# From MPEC 2024-EF7
101P/Chernykh,e,5.0489,116.1468,277.9219,5.814815,0.0702911,0.59608340,118.2679,08/22.0/2024,2000,g 10.0,4.8
# From MPC105241
101P-B/Chernykh,e,5.0500,278.5299,115.5416,5.830327,0.0700107,0.59629414,116.5519,08/22.0/2024,2000,g  9.0,4.0
# From MPEC 2022-C56
102P/Shoemaker,e,25.8648,339.4074,20.6734,3.819017,0.1320617,0.45641801,172.7045,08/22.0/2024,2000,g  6.5,8.0
# From MPEC 2024-NE4
103P/Hartley,e,13.6105,219.7501,181.3096,3.474736,0.1521673,0.69369225,47.8566,08/22.0/2024,2000,g  8.5,8.0
# From MPEC 2023-G31
104P/Kowal,e,5.7026,207.2034,227.2688,3.208705,0.1714784,0.66591609,163.4048,08/22.0/2024,2000,g 16.0,4.0
# From MPEC 2024-F34
